SKYNET 5B               
1 32294U 07056B   26095.17947926  .00000143  00000+0  00000+0 0  9991
2 32294   5.0673  74.3560 0003925 298.0505 270.7707  1.00273022 67466
ASTRA 4A                
1 32299U 07057A   26095.22822667  .00000033  00000+0  00000+0 0  9995
2 32299   0.0517  58.4341 0002679 326.7553 255.3067  1.00271091 50914
HORIZONS-2              
1 32388U 07063B   26095.20282278 -.00000251  00000+0  00000+0 0  9990
2 32388   2.4140  81.5122 0002868 306.8067 164.3962  1.00270603 67081
THURAYA-3               
1 32404U 08001A   26094.83748992 -.00000300  00000+0  00000+0 0  9995
2 32404   5.8671  35.6679 0002403 339.2697 218.2162  1.00273419 66759
EXPRESS-AM33            
1 32478U 08003A   26090.68874784  .00000143  00000+0  00000+0 0  9990
2 32478   4.6040  76.2589 0013579 180.1473 213.6462  1.00184844 52962
THOR 5                  
1 32487U 08006A   26095.24568988 -.00000008  00000+0  00000+0 0  9997
2 32487   0.0171 232.5275 0002544 148.4467 260.2692  1.00271532 66583
KIZUNA (WINDS)          
1 32500U 08007A   26095.10277894 -.00000020  00000+0  00000+0 0  9996
2 32500   8.3562  62.9754 0000358 202.0427 323.1171  1.00288768 66169
DIRECTV 11              
1 32729U 08013A   26094.94099737 -.00000125  00000+0  00000+0 0  9991
2 32729   0.0215  28.7272 0000338 318.5547  85.5298  1.00272596 44858
ICO G1                  
1 32763U 08016A   26094.87091429 -.00000170  00000+0  00000+0 0  9994
2 32763   5.5161  36.2938 0002487 320.1744  57.3970  1.00273197 65815
VINASAT-1               
1 32767U 08018A   26095.27195000  .00000000  00000+0  00000+0 0  9996
2 32767   0.0097 216.3588 0002656 197.3966   9.6722  1.00269839 65854
STAR ONE C2             
1 32768U 08018B   26095.15114197 -.00000275  00000+0  00000+0 0  9997
2 32768   1.0543  83.0703 0003102 307.6361 152.1569  1.00270701 65923
AMOS-3                  
1 32794U 08022A   26095.24499655 -.00000033  00000+0  00000+0 0  9998
2 32794   0.2670  87.1312 0000427 201.7310 348.7839  1.00274047 81603
GALAXY 18 (G-18)        
1 32951U 08024A   26095.22151276  .00000000  00000+0  00000+0 0  9990
2 32951   0.0167 201.9501 0003093 179.7548 128.5722  1.00271770 45124
ZHONGXING-9             
1 33051U 08028A   26095.12753198 -.00000247  00000+0  00000+0 0  9990
2 33051   0.5823  86.2666 0007520 266.5674 338.9020  1.00271573 65301
SKYNET 5C               
1 33055U 08030A   26095.24230987 -.00000137  00000+0  00000+0 0  9994
2 33055   3.6024  77.8877 0003852 296.2874 248.8281  1.00272243 65222
TURKSAT 3A              
1 33056U 08030B   26095.21155890  .00000147  00000+0  00000+0 0  9991
2 33056   0.0533  70.7914 0005167 328.0749 272.7965  1.00269865 51629
COSMOS 2440             
1 33108U 08033A   26094.86433974 -.00000146  00000+0  00000+0 0  9994
2 33108  10.4438  41.6928 0004431 224.3471 318.4156  1.00274250 65057
