[{"OBJECT_NAME":"SKYNET 5B","OBJECT_ID":"2007-056B","EPOCH":"2026-04-05T04:18:27.008064","MEAN_MOTION":1.00273022,"ECCENTRICITY":0.0003925,"INCLINATION":5.0673,"RA_OF_ASC_NODE":74.356,"ARG_OF_PERICENTER":298.0505,"MEAN_ANOMALY":270.7707,"EPHEMERIS_TYPE":0,"CLASSIFICATION_TYPE":"U","NORAD_CAT_ID":32294,"ELEMENT_SET_NO":999,"REV_AT_EPOCH":6746,"BSTAR":0,"MEAN_MOTION_DOT":1.43e-6,"MEAN_MOTION_DDOT":0},{"OBJECT_NAME":"ASTRA 4A","OBJECT_ID":"2007-057A","EPOCH":"2026-04-05T05:28:38.784288","MEAN_MOTION":1.00271091,"ECCENTRICITY":0.00026799,"INCLINATION":0.0517,"RA_OF_ASC_NODE":58.4341,"ARG_OF_PERICENTER":326.7553,"MEAN_ANOMALY":255.3067,"EPHEMERIS_TYPE":0,"CLASSIFICATION_TYPE":"U","NORAD_CAT_ID":32299,"ELEMENT_SET_NO":999,"REV_AT_EPOCH":5091,"BSTAR":0,"MEAN_MOTION_DOT":3.3e-7,"MEAN_MOTION_DDOT":0},{"OBJECT_NAME":"HORIZONS-2","OBJECT_ID":"2007-063B","EPOCH":"2026-04-05T04:52:03.888192","MEAN_MOTION":1.00270603,"ECCENTRICITY":0.00028689,"INCLINATION":2.414,"RA_OF_ASC_NODE":81.5122,"ARG_OF_PERICENTER":306.8067,"MEAN_ANOMALY":164.3962,"EPHEMERIS_TYPE":0,"CLASSIFICATION_TYPE":"U","NORAD_CAT_ID":32388,"ELEMENT_SET_NO":999,"REV_AT_EPOCH":6708,"BSTAR":0,"MEAN_MOTION_DOT":-2.51e-6,"MEAN_MOTION_DDOT":0},{"OBJECT_NAME":"THURAYA-3","OBJECT_ID":"2008-001A","EPOCH":"2026-04-04T20:05:59.129088","MEAN_MOTION":1.00273419,"ECCENTRICITY":0.00024039,"INCLINATION":5.8671,"RA_OF_ASC_NODE":35.6679,"ARG_OF_PERICENTER":339.2697,"MEAN_ANOMALY":218.2162,"EPHEMERIS_TYPE":0,"CLASSIFICATION_TYPE":"U","NORAD_CAT_ID":32404,"ELEMENT_SET_NO":999,"REV_AT_EPOCH":6675,"BSTAR":0,"MEAN_MOTION_DOT":-3.0e-6,"MEAN_MOTION_DDOT":0},{"OBJECT_NAME":"EXPRESS-AM33","OBJECT_ID":"2008-003A","EPOCH":"2026-03-31T16:31:47.813376","MEAN_MOTION":1.00184844,"ECCENTRICITY":0.00135795,"INCLINATION":4.604,"RA_OF_ASC_NODE":76.2589,"ARG_OF_PERICENTER":180.1473,"MEAN_ANOMALY":213.6462,"EPHEMERIS_TYPE":0,"CLASSIFICATION_TYPE":"U","NORAD_CAT_ID":32478,"ELEMENT_SET_NO":999,"REV_AT_EPOCH":5296,"BSTAR":0,"MEAN_MOTION_DOT":1.43e-6,"MEAN_MOTION_DDOT":0},{"OBJECT_NAME":"THOR 5","OBJECT_ID":"2008-006A","EPOCH":"2026-04-05T05:53:47.605632","MEAN_MOTION":1.00271532,"ECCENTRICITY":0.00025445,"INCLINATION":0.0171,"RA_OF_ASC_NODE":232.5275,"ARG_OF_PERICENTER":148.4467,"MEAN_ANOMALY":260.2692,"EPHEMERIS_TYPE":0,"CLASSIFICATION_TYPE":"U","NORAD_CAT_ID":32487,"ELEMENT_SET_NO":999,"REV_AT_EPOCH":6658,"BSTAR":0,"MEAN_MOTION_DOT":-8.0e-8,"MEAN_MOTION_DDOT":0},{"OBJECT_NAME":"KIZUNA (WINDS)","OBJECT_ID":"2008-007A","EPOCH":"2026-04-05T02:28:00.100416","MEAN_MOTION":1.00288768,"ECCENTRICITY":3.585e-5,"INCLINATION":8.3562,"RA_OF_ASC_NODE":62.9754,"ARG_OF_PERICENTER":202.0427,"MEAN_ANOMALY":323.1171,"EPHEMERIS_TYPE":0,"CLASSIFICATION_TYPE":"U","NORAD_CAT_ID":32500,"ELEMENT_SET_NO":999,"REV_AT_EPOCH":6616,"BSTAR":0,"MEAN_MOTION_DOT":-2.0e-7,"MEAN_MOTION_DDOT":0},{"OBJECT_NAME":"DIRECTV 11","OBJECT_ID":"2008-013A","EPOCH":"2026-04-04T22:35:02.172768","MEAN_MOTION":1.00272596,"ECCENTRICITY":3.386e-5,"INCLINATION":0.0215,"RA_OF_ASC_NODE":28.7272,"ARG_OF_PERICENTER":318.5547,"MEAN_ANOMALY":85.5298,"EPHEMERIS_TYPE":0,"CLASSIFICATION_TYPE":"U","NORAD_CAT_ID":32729,"ELEMENT_SET_NO":999,"REV_AT_EPOCH":4485,"BSTAR":0,"MEAN_MOTION_DOT":-1.25e-6,"MEAN_MOTION_DDOT":0},{"OBJECT_NAME":"ICO G1","OBJECT_ID":"2008-016A","EPOCH":"2026-04-04T20:54:06.994656","MEAN_MOTION":1.00273197,"ECCENTRICITY":0.00024877,"INCLINATION":5.5161,"RA_OF_ASC_NODE":36.2938,"ARG_OF_PERICENTER":320.1744,"MEAN_ANOMALY":57.397,"EPHEMERIS_TYPE":0,"CLASSIFICATION_TYPE":"U","NORAD_CAT_ID":32763,"ELEMENT_SET_NO":999,"REV_AT_EPOCH":6581,"BSTAR":0,"MEAN_MOTION_DOT":-1.7e-6,"MEAN_MOTION_DDOT":0},{"OBJECT_NAME":"VINASAT-1","OBJECT_ID":"2008-018A","EPOCH":"2026-04-05T06:31:36.480000","MEAN_MOTION":1.00269839,"ECCENTRICITY":0.00026561,"INCLINATION":0.0097,"RA_OF_ASC_NODE":216.3588,"ARG_OF_PERICENTER":197.3966,"MEAN_ANOMALY":9.6722,"EPHEMERIS_TYPE":0,"CLASSIFICATION_TYPE":"U","NORAD_CAT_ID":32767,"ELEMENT_SET_NO":999,"REV_AT_EPOCH":6585,"BSTAR":0,"MEAN_MOTION_DOT":0,"MEAN_MOTION_DDOT":0},{"OBJECT_NAME":"STAR ONE C2","OBJECT_ID":"2008-018B","EPOCH":"2026-04-05T03:37:38.666208","MEAN_MOTION":1.00270701,"ECCENTRICITY":0.00031026,"INCLINATION":1.0543,"RA_OF_ASC_NODE":83.0703,"ARG_OF_PERICENTER":307.6361,"MEAN_ANOMALY":152.1569,"EPHEMERIS_TYPE":0,"CLASSIFICATION_TYPE":"U","NORAD_CAT_ID":32768,"ELEMENT_SET_NO":999,"REV_AT_EPOCH":6592,"BSTAR":0,"MEAN_MOTION_DOT":-2.75e-6,"MEAN_MOTION_DDOT":0},{"OBJECT_NAME":"AMOS-3","OBJECT_ID":"2008-022A","EPOCH":"2026-04-05T05:52:47.701920","MEAN_MOTION":1.00274047,"ECCENTRICITY":4.278e-5,"INCLINATION":0.267,"RA_OF_ASC_NODE":87.1312,"ARG_OF_PERICENTER":201.731,"MEAN_ANOMALY":348.7839,"EPHEMERIS_TYPE":0,"CLASSIFICATION_TYPE":"U","NORAD_CAT_ID":32794,"ELEMENT_SET_NO":999,"REV_AT_EPOCH":8160,"BSTAR":0,"MEAN_MOTION_DOT":-3.3e-7,"MEAN_MOTION_DDOT":0},{"OBJECT_NAME":"GALAXY 18 (G-18)","OBJECT_ID":"2008-024A","EPOCH":"2026-04-05T05:18:58.702464","MEAN_MOTION":1.0027177,"ECCENTRICITY":0.00030935,"INCLINATION":0.0167,"RA_OF_ASC_NODE":201.9501,"ARG_OF_PERICENTER":179.7548,"MEAN_ANOMALY":128.5722,"EPHEMERIS_TYPE":0,"CLASSIFICATION_TYPE":"U","NORAD_CAT_ID":32951,"ELEMENT_SET_NO":999,"REV_AT_EPOCH":4512,"BSTAR":0,"MEAN_MOTION_DOT":0,"MEAN_MOTION_DDOT":0},{"OBJECT_NAME":"ZHONGXING-9","OBJECT_ID":"2008-028A","EPOCH":"2026-04-05T03:03:38.763072","MEAN_MOTION":1.00271573,"ECCENTRICITY":0.00075201,"INCLINATION":0.5823,"RA_OF_ASC_NODE":86.2666,"ARG_OF_PERICENTER":266.5674,"MEAN_ANOMALY":338.902,"EPHEMERIS_TYPE":0,"CLASSIFICATION_TYPE":"U","NORAD_CAT_ID":33051,"ELEMENT_SET_NO":999,"REV_AT_EPOCH":6530,"BSTAR":0,"MEAN_MOTION_DOT":-2.47e-6,"MEAN_MOTION_DDOT":0},{"OBJECT_NAME":"SKYNET 5C","OBJECT_ID":"2008-030A","EPOCH":"2026-04-05T05:48:55.572768","MEAN_MOTION":1.00272243,"ECCENTRICITY":0.00038523,"INCLINATION":3.6024,"RA_OF_ASC_NODE":77.8877,"ARG_OF_PERICENTER":296.2874,"MEAN_ANOMALY":248.8281,"EPHEMERIS_TYPE":0,"CLASSIFICATION_TYPE":"U","NORAD_CAT_ID":33055,"ELEMENT_SET_NO":999,"REV_AT_EPOCH":6522,"BSTAR":0,"MEAN_MOTION_DOT":-1.37e-6,"MEAN_MOTION_DDOT":0},{"OBJECT_NAME":"TURKSAT 3A","OBJECT_ID":"2008-030B","EPOCH":"2026-04-05T05:04:38.688960","MEAN_MOTION":1.00269865,"ECCENTRICITY":0.0005167,"INCLINATION":0.0533,"RA_OF_ASC_NODE":70.7914,"ARG_OF_PERICENTER":328.0749,"MEAN_ANOMALY":272.7965,"EPHEMERIS_TYPE":0,"CLASSIFICATION_TYPE":"U","NORAD_CAT_ID":33056,"ELEMENT_SET_NO":999,"REV_AT_EPOCH":5162,"BSTAR":0,"MEAN_MOTION_DOT":1.47e-6,"MEAN_MOTION_DDOT":0},{"OBJECT_NAME":"COSMOS 2440","OBJECT_ID":"2008-033A","EPOCH":"2026-04-04T20:44:38.953536","MEAN_MOTION":1.0027425,"ECCENTRICITY":0.00044317,"INCLINATION":10.4438,"RA_OF_ASC_NODE":41.6928,"ARG_OF_PERICENTER":224.3471,"MEAN_ANOMALY":318.4156,"EPHEMERIS_TYPE":0,"CLASSIFICATION_TYPE":"U","NORAD_CAT_ID":33108,"ELEMENT_SET_NO":999,"REV_AT_EPOCH":6505,"BSTAR":0,"MEAN_MOTION_DOT":-1.46e-6,"MEAN_MOTION_DDOT":0}]
